{
    "links": {
        "self": "http://www.neowsapp.com/rest/v1/neo/3991586?api_key=iIulBulltgU6a56xZRHN4H3l9WmuAYTsLGpBGhQ2"
    },
    "id": "3991586",
    "neo_reference_id": "3991586",
    "name": "(2020 CP2)",
    "designation": "2020 CP2",
    "nasa_jpl_url": "http://ssd.jpl.nasa.gov/sbdb.cgi?sstr=3991586",
    "absolute_magnitude_h": 25.525,
    "estimated_diameter": {
        "kilometers": {
            "estimated_diameter_min": 0.0208715632,
            "estimated_diameter_max": 0.046670234
        },
        "meters": {
            "estimated_diameter_min": 20.8715631679,
            "estimated_diameter_max": 46.6702340402
        },
        "miles": {
            "estimated_diameter_min": 0.0129689841,
            "estimated_diameter_max": 0.02899953
        },
        "feet": {
            "estimated_diameter_min": 68.4762593039,
            "estimated_diameter_max": 153.1175706484
        }
    },
    "is_potentially_hazardous_asteroid": false,
    "close_approach_data": [
        {
            "close_approach_date": "2020-02-20",
            "close_approach_date_full": "2020-Feb-20 16:21",
            "epoch_date_close_approach": 1582215660000,
            "relative_velocity": {
                "kilometers_per_second": "21.0641295887",
                "kilometers_per_hour": "75830.8665192368",
                "miles_per_hour": "47118.3514769114"
            },
            "miss_distance": {
                "astronomical": "0.0128130798",
                "lunar": "4.9842880422",
                "kilometers": "1916809.446220026",
                "miles": "1191050.1601513188"
            },
            "orbiting_body": "Earth"
        }
    ],
    "orbital_data": {
        "orbit_id": "7",
        "orbit_determination_date": "2020-08-22 06:32:31",
        "first_observation_date": "2020-02-14",
        "last_observation_date": "2020-02-20",
        "data_arc_in_days": 6,
        "observations_used": 66,
        "orbit_uncertainty": "8",
        "minimum_orbit_intersection": ".00237533",
        "jupiter_tisserand_invariant": "2.944",
        "epoch_osculation": "2458895.5",
        "eccentricity": ".752828103328226",
        "semi_major_axis": "2.578444961777794",
        "inclination": "1.907921650430822",
        "ascending_node_longitude": "137.0369049339353",
        "orbital_period": "1512.290504486032",
        "perihelion_distance": ".637319131666397",
        "perihelion_argument": "93.61540535894034",
        "aphelion_distance": "4.519570791889191",
        "perihelion_time": "2458943.263787064002",
        "mean_anomaly": "348.6298543222788",
        "mean_motion": ".2380495010264909",
        "equinox": "J2000",
        "orbit_class": {
            "orbit_class_type": "APO",
            "orbit_class_description": "Near-Earth asteroid orbits which cross the Earth’s orbit similar to that of 1862 Apollo",
            "orbit_class_range": "a (semi-major axis) > 1.0 AU; q (perihelion) < 1.017 AU"
        }
    },
    "is_sentry_object": false
}